[{"OBJECT_NAME":"STARLINK-5362","OBJECT_ID":"2023-015AW","EPOCH":"2026-03-09T22:00:01.999584","MEAN_MOTION":15.14253671,"ECCENTRICITY":0.00016673,"INCLINATION":42.9997,"RA_OF_ASC_NODE":337.1524,"ARG_OF_PERICENTER":280.7913,"MEAN_ANOMALY":131.0902,"EPHEMERIS_TYPE":0,"CLASSIFICATION_TYPE":"U","NORAD_CAT_ID":55493,"ELEMENT_SET_NO":999,"REV_AT_EPOCH":572,"BSTAR":0.0025065556,"MEAN_MOTION_DOT":0.00046733,"MEAN_MOTION_DDOT":0},{"OBJECT_NAME":"OBJECT C","OBJECT_ID":"2025-226C","EPOCH":"2026-03-09T22:35:45.758112","MEAN_MOTION":15.1432456,"ECCENTRICITY":0.00153316,"INCLINATION":97.6396,"RA_OF_ASC_NODE":148.5375,"ARG_OF_PERICENTER":120.7219,"MEAN_ANOMALY":239.5525,"EPHEMERIS_TYPE":0,"CLASSIFICATION_TYPE":"U","NORAD_CAT_ID":65940,"ELEMENT_SET_NO":999,"REV_AT_EPOCH":2265,"BSTAR":0.00059133816,"MEAN_MOTION_DOT":0.00010804,"MEAN_MOTION_DDOT":0}]
